<?xml version="1.0" encoding="UTF-8"?>
<gpx creator="Wikiloc - https://www.wikiloc.com" version="1.1" xmlns="http://www.topografix.com/GPX/1/1" xmlns:xsi="http://www.w3.org/2001/XMLSchema-instance" xsi:schemaLocation="http://www.topografix.com/GPX/1/1 http://www.topografix.com/GPX/1/1/gpx.xsd">
  <metadata>
    <name>Wikiloc - CASCADAS DE AMIPULCO-PASO DE CORTÉS-IZTACCIHUATL</name>
    <link href="https://www.wikiloc.com/hiking-trails/cascadas-de-amipulco-paso-de-cortes-iztaccihuatl-114254750">
      <text>CASCADAS DE AMIPULCO-PASO DE CORTÉS-IZTACCIHUATL - Wikiloc on Wikiloc</text>
    </link>
    <time>2021-09-05T21:59:07Z</time>
  </metadata>
  <trk>
    <name>CASCADAS DE AMIPULCO-PASO DE CORTÉS-IZTACCIHUATL - Wikiloc</name>
    <cmt></cmt>
    <desc></desc>
    <trkseg>
      <trkpt lat="19.086871" lon="-98.647047">
        <ele>3679.119</ele>
        <time>2021-09-05T15:07:49Z</time>
      </trkpt>
      <trkpt lat="19.086974" lon="-98.647114">
        <ele>3676.709</ele>
        <time>2021-09-05T15:08:20Z</time>
      </trkpt>
      <trkpt lat="19.087360" lon="-98.646595">
        <ele>3680.919</ele>
        <time>2021-09-05T15:09:15Z</time>
      </trkpt>
      <trkpt lat="19.087947" lon="-98.646232">
        <ele>3679.709</ele>
        <time>2021-09-05T15:10:10Z</time>
      </trkpt>
      <trkpt lat="19.089046" lon="-98.646319">
        <ele>3682.092</ele>
        <time>2021-09-05T15:11:43Z</time>
      </trkpt>
      <trkpt lat="19.090097" lon="-98.646553">
        <ele>3686.642</ele>
        <time>2021-09-05T15:13:11Z</time>
      </trkpt>
      <trkpt lat="19.092727" lon="-98.647909">
        <ele>3689.495</ele>
        <time>2021-09-05T15:17:02Z</time>
      </trkpt>
      <trkpt lat="19.094027" lon="-98.647734">
        <ele>3687.563</ele>
        <time>2021-09-05T15:18:48Z</time>
      </trkpt>
      <trkpt lat="19.094646" lon="-98.648115">
        <ele>3688.276</ele>
        <time>2021-09-05T15:19:53Z</time>
      </trkpt>
      <trkpt lat="19.095170" lon="-98.647817">
        <ele>3690.375</ele>
        <time>2021-09-05T15:20:39Z</time>
      </trkpt>
      <trkpt lat="19.095492" lon="-98.647812">
        <ele>3689.648</ele>
        <time>2021-09-05T15:21:07Z</time>
      </trkpt>
      <trkpt lat="19.096703" lon="-98.648249">
        <ele>3695.476</ele>
        <time>2021-09-05T15:23:10Z</time>
      </trkpt>
      <trkpt lat="19.097496" lon="-98.648029">
        <ele>3703.321</ele>
        <time>2021-09-05T15:24:26Z</time>
      </trkpt>
      <trkpt lat="19.097998" lon="-98.647504">
        <ele>3710.041</ele>
        <time>2021-09-05T15:25:34Z</time>
      </trkpt>
      <trkpt lat="19.098858" lon="-98.647123">
        <ele>3719.181</ele>
        <time>2021-09-05T15:27:00Z</time>
      </trkpt>
      <trkpt lat="19.099047" lon="-98.647133">
        <ele>3724.609</ele>
        <time>2021-09-05T15:27:19Z</time>
      </trkpt>
      <trkpt lat="19.099537" lon="-98.647994">
        <ele>3726.809</ele>
        <time>2021-09-05T15:28:56Z</time>
      </trkpt>
      <trkpt lat="19.100507" lon="-98.648113">
        <ele>3739.395</ele>
        <time>2021-09-05T15:30:31Z</time>
      </trkpt>
      <trkpt lat="19.101577" lon="-98.648036">
        <ele>3757.335</ele>
        <time>2021-09-05T15:35:41Z</time>
      </trkpt>
      <trkpt lat="19.102440" lon="-98.647657">
        <ele>3771.098</ele>
        <time>2021-09-05T15:37:06Z</time>
      </trkpt>
      <trkpt lat="19.102771" lon="-98.647599">
        <ele>3778.156</ele>
        <time>2021-09-05T15:37:34Z</time>
      </trkpt>
      <trkpt lat="19.102926" lon="-98.647697">
        <ele>3778.699</ele>
        <time>2021-09-05T15:37:53Z</time>
      </trkpt>
      <trkpt lat="19.104481" lon="-98.646940">
        <ele>3800.048</ele>
        <time>2021-09-05T15:40:36Z</time>
      </trkpt>
      <trkpt lat="19.104737" lon="-98.647038">
        <ele>3805.561</ele>
        <time>2021-09-05T15:41:06Z</time>
      </trkpt>
      <trkpt lat="19.105324" lon="-98.646928">
        <ele>3810.819</ele>
        <time>2021-09-05T15:42:03Z</time>
      </trkpt>
      <trkpt lat="19.105565" lon="-98.646689">
        <ele>3815.774</ele>
        <time>2021-09-05T15:42:31Z</time>
      </trkpt>
      <trkpt lat="19.105868" lon="-98.646703">
        <ele>3813.996</ele>
        <time>2021-09-05T15:43:00Z</time>
      </trkpt>
      <trkpt lat="19.106453" lon="-98.646463">
        <ele>3826.631</ele>
        <time>2021-09-05T15:43:58Z</time>
      </trkpt>
      <trkpt lat="19.107296" lon="-98.646685">
        <ele>3832.424</ele>
        <time>2021-09-05T15:45:15Z</time>
      </trkpt>
      <trkpt lat="19.107938" lon="-98.646696">
        <ele>3844.209</ele>
        <time>2021-09-05T15:46:14Z</time>
      </trkpt>
      <trkpt lat="19.108528" lon="-98.647742">
        <ele>3843.510</ele>
        <time>2021-09-05T15:47:47Z</time>
      </trkpt>
      <trkpt lat="19.109017" lon="-98.647846">
        <ele>3846.450</ele>
        <time>2021-09-05T15:48:25Z</time>
      </trkpt>
      <trkpt lat="19.109626" lon="-98.647425">
        <ele>3853.243</ele>
        <time>2021-09-05T15:49:24Z</time>
      </trkpt>
      <trkpt lat="19.110103" lon="-98.646489">
        <ele>3867.631</ele>
        <time>2021-09-05T15:50:51Z</time>
      </trkpt>
      <trkpt lat="19.110461" lon="-98.646276">
        <ele>3872.524</ele>
        <time>2021-09-05T15:51:28Z</time>
      </trkpt>
      <trkpt lat="19.111436" lon="-98.646027">
        <ele>3886.313</ele>
        <time>2021-09-05T15:52:54Z</time>
      </trkpt>
      <trkpt lat="19.113206" lon="-98.646053">
        <ele>3899.136</ele>
        <time>2021-09-05T15:58:24Z</time>
      </trkpt>
      <trkpt lat="19.114101" lon="-98.645931">
        <ele>3916.344</ele>
        <time>2021-09-05T16:00:31Z</time>
      </trkpt>
      <trkpt lat="19.114279" lon="-98.645748">
        <ele>3922.299</ele>
        <time>2021-09-05T16:00:59Z</time>
      </trkpt>
      <trkpt lat="19.115013" lon="-98.645744">
        <ele>3939.878</ele>
        <time>2021-09-05T16:02:26Z</time>
      </trkpt>
      <trkpt lat="19.115716" lon="-98.646898">
        <ele>3954.233</ele>
        <time>2021-09-05T16:04:29Z</time>
      </trkpt>
      <trkpt lat="19.116378" lon="-98.648399">
        <ele>3950.826</ele>
        <time>2021-09-05T16:06:41Z</time>
      </trkpt>
      <trkpt lat="19.116761" lon="-98.648660">
        <ele>3954.809</ele>
        <time>2021-09-05T16:07:18Z</time>
      </trkpt>
      <trkpt lat="19.117846" lon="-98.648964">
        <ele>3961.638</ele>
        <time>2021-09-05T16:09:02Z</time>
      </trkpt>
      <trkpt lat="19.118668" lon="-98.649518">
        <ele>3962.578</ele>
        <time>2021-09-05T16:10:17Z</time>
      </trkpt>
      <trkpt lat="19.119790" lon="-98.649535">
        <ele>3953.531</ele>
        <time>2021-09-05T16:11:52Z</time>
      </trkpt>
      <trkpt lat="19.119992" lon="-98.650330">
        <ele>3954.139</ele>
        <time>2021-09-05T16:12:58Z</time>
      </trkpt>
      <trkpt lat="19.120718" lon="-98.650853">
        <ele>3958.982</ele>
        <time>2021-09-05T16:14:23Z</time>
      </trkpt>
      <trkpt lat="19.121735" lon="-98.651996">
        <ele>3948.461</ele>
        <time>2021-09-05T16:16:17Z</time>
      </trkpt>
      <trkpt lat="19.122244" lon="-98.651852">
        <ele>3945.744</ele>
        <time>2021-09-05T16:16:58Z</time>
      </trkpt>
      <trkpt lat="19.126094" lon="-98.652847">
        <ele>3959.362</ele>
        <time>2021-09-05T16:22:24Z</time>
      </trkpt>
      <trkpt lat="19.126617" lon="-98.652674">
        <ele>3967.667</ele>
        <time>2021-09-05T16:23:20Z</time>
      </trkpt>
      <trkpt lat="19.126951" lon="-98.652390">
        <ele>3972.599</ele>
        <time>2021-09-05T16:24:16Z</time>
      </trkpt>
      <trkpt lat="19.127464" lon="-98.652428">
        <ele>3973.207</ele>
        <time>2021-09-05T16:25:03Z</time>
      </trkpt>
      <trkpt lat="19.127975" lon="-98.651670">
        <ele>3982.027</ele>
        <time>2021-09-05T16:26:38Z</time>
      </trkpt>
      <trkpt lat="19.128624" lon="-98.651263">
        <ele>3977.609</ele>
        <time>2021-09-05T16:28:08Z</time>
      </trkpt>
      <trkpt lat="19.129343" lon="-98.651176">
        <ele>3973.540</ele>
        <time>2021-09-05T16:29:24Z</time>
      </trkpt>
      <trkpt lat="19.130359" lon="-98.651516">
        <ele>3984.450</ele>
        <time>2021-09-05T16:30:42Z</time>
      </trkpt>
      <trkpt lat="19.131631" lon="-98.652212">
        <ele>3977.493</ele>
        <time>2021-09-05T16:32:31Z</time>
      </trkpt>
      <trkpt lat="19.133058" lon="-98.652154">
        <ele>3966.541</ele>
        <time>2021-09-05T16:34:18Z</time>
      </trkpt>
      <trkpt lat="19.133549" lon="-98.651842">
        <ele>3970.084</ele>
        <time>2021-09-05T16:37:28Z</time>
      </trkpt>
      <trkpt lat="19.134081" lon="-98.651730">
        <ele>3969.213</ele>
        <time>2021-09-05T16:39:24Z</time>
      </trkpt>
      <trkpt lat="19.134923" lon="-98.651132">
        <ele>3969.786</ele>
        <time>2021-09-05T16:40:40Z</time>
      </trkpt>
      <trkpt lat="19.135551" lon="-98.651002">
        <ele>3973.934</ele>
        <time>2021-09-05T16:41:39Z</time>
      </trkpt>
      <trkpt lat="19.136706" lon="-98.650309">
        <ele>3998.729</ele>
        <time>2021-09-05T16:43:53Z</time>
      </trkpt>
      <trkpt lat="19.136946" lon="-98.649929">
        <ele>3998.092</ele>
        <time>2021-09-05T16:47:16Z</time>
      </trkpt>
      <trkpt lat="19.137214" lon="-98.649822">
        <ele>3996.973</ele>
        <time>2021-09-05T16:49:44Z</time>
      </trkpt>
      <trkpt lat="19.137381" lon="-98.649100">
        <ele>4013.620</ele>
        <time>2021-09-05T16:51:59Z</time>
      </trkpt>
      <trkpt lat="19.138026" lon="-98.648412">
        <ele>4020.509</ele>
        <time>2021-09-05T16:53:34Z</time>
      </trkpt>
      <trkpt lat="19.138300" lon="-98.647807">
        <ele>4026.660</ele>
        <time>2021-09-05T16:54:30Z</time>
      </trkpt>
      <trkpt lat="19.138798" lon="-98.647181">
        <ele>4005.780</ele>
        <time>2021-09-05T16:57:13Z</time>
      </trkpt>
      <trkpt lat="19.139296" lon="-98.646886">
        <ele>3999.663</ele>
        <time>2021-09-05T16:57:59Z</time>
      </trkpt>
      <trkpt lat="19.139584" lon="-98.646518">
        <ele>3993.491</ele>
        <time>2021-09-05T16:58:39Z</time>
      </trkpt>
      <trkpt lat="19.139721" lon="-98.646575">
        <ele>3988.164</ele>
        <time>2021-09-05T16:59:27Z</time>
      </trkpt>
      <trkpt lat="19.140970" lon="-98.646080">
        <ele>3976.563</ele>
        <time>2021-09-05T17:01:21Z</time>
      </trkpt>
      <trkpt lat="19.141893" lon="-98.646250">
        <ele>3961.636</ele>
        <time>2021-09-05T17:02:46Z</time>
      </trkpt>
      <trkpt lat="19.142188" lon="-98.646071">
        <ele>3956.214</ele>
        <time>2021-09-05T17:03:24Z</time>
      </trkpt>
      <trkpt lat="19.142315" lon="-98.646271">
        <ele>3958.779</ele>
        <time>2021-09-05T17:04:17Z</time>
      </trkpt>
      <trkpt lat="19.143081" lon="-98.646105">
        <ele>3948.737</ele>
        <time>2021-09-05T17:05:37Z</time>
      </trkpt>
      <trkpt lat="19.143660" lon="-98.646610">
        <ele>3941.349</ele>
        <time>2021-09-05T17:06:54Z</time>
      </trkpt>
      <trkpt lat="19.144258" lon="-98.646911">
        <ele>3945.613</ele>
        <time>2021-09-05T17:08:12Z</time>
      </trkpt>
      <trkpt lat="19.145062" lon="-98.647595">
        <ele>3950.109</ele>
        <time>2021-09-05T17:11:17Z</time>
      </trkpt>
      <trkpt lat="19.145105" lon="-98.647789">
        <ele>3946.164</ele>
        <time>2021-09-05T17:12:18Z</time>
      </trkpt>
      <trkpt lat="19.145249" lon="-98.647736">
        <ele>3942.254</ele>
        <time>2021-09-05T17:12:37Z</time>
      </trkpt>
      <trkpt lat="19.145290" lon="-98.647947">
        <ele>3958.167</ele>
        <time>2021-09-05T17:13:17Z</time>
      </trkpt>
      <trkpt lat="19.145837" lon="-98.647643">
        <ele>3974.155</ele>
        <time>2021-09-05T17:15:44Z</time>
      </trkpt>
      <trkpt lat="19.146513" lon="-98.647717">
        <ele>3991.958</ele>
        <time>2021-09-05T17:17:51Z</time>
      </trkpt>
      <trkpt lat="19.146432" lon="-98.647632">
        <ele>3998.127</ele>
        <time>2021-09-05T17:24:56Z</time>
      </trkpt>
      <trkpt lat="19.146561" lon="-98.647517">
        <ele>3996.660</ele>
        <time>2021-09-05T17:29:03Z</time>
      </trkpt>
      <trkpt lat="19.146779" lon="-98.647646">
        <ele>4003.638</ele>
        <time>2021-09-05T17:29:50Z</time>
      </trkpt>
      <trkpt lat="19.147011" lon="-98.647515">
        <ele>4009.363</ele>
        <time>2021-09-05T17:30:49Z</time>
      </trkpt>
      <trkpt lat="19.147167" lon="-98.647653">
        <ele>4018.933</ele>
        <time>2021-09-05T17:31:27Z</time>
      </trkpt>
      <trkpt lat="19.147206" lon="-98.647478">
        <ele>4027.423</ele>
        <time>2021-09-05T17:31:55Z</time>
      </trkpt>
      <trkpt lat="19.147339" lon="-98.647461">
        <ele>4034.215</ele>
        <time>2021-09-05T17:32:38Z</time>
      </trkpt>
      <trkpt lat="19.147481" lon="-98.647626">
        <ele>4044.209</ele>
        <time>2021-09-05T17:33:16Z</time>
      </trkpt>
      <trkpt lat="19.147711" lon="-98.647541">
        <ele>4056.344</ele>
        <time>2021-09-05T17:34:26Z</time>
      </trkpt>
      <trkpt lat="19.147848" lon="-98.647738">
        <ele>4066.214</ele>
        <time>2021-09-05T17:35:36Z</time>
      </trkpt>
      <trkpt lat="19.147757" lon="-98.647755">
        <ele>4066.037</ele>
        <time>2021-09-05T17:35:45Z</time>
      </trkpt>
      <trkpt lat="19.147985" lon="-98.647688">
        <ele>4065.735</ele>
        <time>2021-09-05T17:37:42Z</time>
      </trkpt>
      <trkpt lat="19.148433" lon="-98.648028">
        <ele>4092.958</ele>
        <time>2021-09-05T17:41:02Z</time>
      </trkpt>
      <trkpt lat="19.148816" lon="-98.647985">
        <ele>4110.397</ele>
        <time>2021-09-05T17:46:09Z</time>
      </trkpt>
      <trkpt lat="19.149232" lon="-98.648231">
        <ele>4140.290</ele>
        <time>2021-09-05T17:49:02Z</time>
      </trkpt>
      <trkpt lat="19.150396" lon="-98.648137">
        <ele>4187.338</ele>
        <time>2021-09-05T17:57:08Z</time>
      </trkpt>
      <trkpt lat="19.150687" lon="-98.648288">
        <ele>4196.823</ele>
        <time>2021-09-05T18:07:00Z</time>
      </trkpt>
      <trkpt lat="19.151653" lon="-98.648394">
        <ele>4168.615</ele>
        <time>2021-09-05T18:09:34Z</time>
      </trkpt>
      <trkpt lat="19.152332" lon="-98.648613">
        <ele>4165.465</ele>
        <time>2021-09-05T18:11:48Z</time>
      </trkpt>
      <trkpt lat="19.152434" lon="-98.648767">
        <ele>4167.911</ele>
        <time>2021-09-05T18:16:01Z</time>
      </trkpt>
      <trkpt lat="19.152496" lon="-98.648626">
        <ele>4165.509</ele>
        <time>2021-09-05T18:18:29Z</time>
      </trkpt>
      <trkpt lat="19.152666" lon="-98.648913">
        <ele>4161.722</ele>
        <time>2021-09-05T18:18:57Z</time>
      </trkpt>
      <trkpt lat="19.152631" lon="-98.649125">
        <ele>4162.242</ele>
        <time>2021-09-05T18:19:37Z</time>
      </trkpt>
      <trkpt lat="19.152885" lon="-98.649435">
        <ele>4162.595</ele>
        <time>2021-09-05T18:25:02Z</time>
      </trkpt>
      <trkpt lat="19.152946" lon="-98.649264">
        <ele>4164.163</ele>
        <time>2021-09-05T18:31:57Z</time>
      </trkpt>
      <trkpt lat="19.152843" lon="-98.649303">
        <ele>4156.176</ele>
        <time>2021-09-05T18:55:49Z</time>
      </trkpt>
      <trkpt lat="19.152885" lon="-98.649595">
        <ele>4155.265</ele>
        <time>2021-09-05T19:04:55Z</time>
      </trkpt>
      <trkpt lat="19.152556" lon="-98.648569">
        <ele>4151.898</ele>
        <time>2021-09-05T19:09:32Z</time>
      </trkpt>
      <trkpt lat="19.152410" lon="-98.648644">
        <ele>4147.786</ele>
        <time>2021-09-05T19:10:23Z</time>
      </trkpt>
      <trkpt lat="19.151428" lon="-98.648202">
        <ele>4133.031</ele>
        <time>2021-09-05T19:12:31Z</time>
      </trkpt>
      <trkpt lat="19.150983" lon="-98.648099">
        <ele>4131.379</ele>
        <time>2021-09-05T19:14:01Z</time>
      </trkpt>
      <trkpt lat="19.149824" lon="-98.648639">
        <ele>4160.705</ele>
        <time>2021-09-05T19:19:46Z</time>
      </trkpt>
      <trkpt lat="19.149579" lon="-98.648431">
        <ele>4149.125</ele>
        <time>2021-09-05T19:20:53Z</time>
      </trkpt>
      <trkpt lat="19.149044" lon="-98.648439">
        <ele>4133.909</ele>
        <time>2021-09-05T19:22:19Z</time>
      </trkpt>
      <trkpt lat="19.148634" lon="-98.648134">
        <ele>4111.188</ele>
        <time>2021-09-05T19:24:25Z</time>
      </trkpt>
      <trkpt lat="19.147807" lon="-98.648162">
        <ele>4072.238</ele>
        <time>2021-09-05T19:27:23Z</time>
      </trkpt>
      <trkpt lat="19.147419" lon="-98.647464">
        <ele>4036.981</ele>
        <time>2021-09-05T19:31:02Z</time>
      </trkpt>
      <trkpt lat="19.146986" lon="-98.647662">
        <ele>4015.669</ele>
        <time>2021-09-05T19:33:11Z</time>
      </trkpt>
      <trkpt lat="19.146515" lon="-98.647530">
        <ele>4000.732</ele>
        <time>2021-09-05T19:34:57Z</time>
      </trkpt>
      <trkpt lat="19.145503" lon="-98.647774">
        <ele>3975.471</ele>
        <time>2021-09-05T19:37:33Z</time>
      </trkpt>
      <trkpt lat="19.145364" lon="-98.647722">
        <ele>3971.574</ele>
        <time>2021-09-05T19:38:04Z</time>
      </trkpt>
      <trkpt lat="19.145425" lon="-98.647542">
        <ele>3955.612</ele>
        <time>2021-09-05T19:38:41Z</time>
      </trkpt>
      <trkpt lat="19.144949" lon="-98.647127">
        <ele>3951.657</ele>
        <time>2021-09-05T19:41:07Z</time>
      </trkpt>
      <trkpt lat="19.144450" lon="-98.647003">
        <ele>3954.169</ele>
        <time>2021-09-05T19:42:04Z</time>
      </trkpt>
      <trkpt lat="19.144298" lon="-98.647078">
        <ele>3947.004</ele>
        <time>2021-09-05T19:42:55Z</time>
      </trkpt>
      <trkpt lat="19.144123" lon="-98.646893">
        <ele>3948.124</ele>
        <time>2021-09-05T19:43:23Z</time>
      </trkpt>
      <trkpt lat="19.143861" lon="-98.646883">
        <ele>3943.309</ele>
        <time>2021-09-05T19:44:02Z</time>
      </trkpt>
      <trkpt lat="19.143546" lon="-98.646559">
        <ele>3942.437</ele>
        <time>2021-09-05T19:45:09Z</time>
      </trkpt>
      <trkpt lat="19.143211" lon="-98.646564">
        <ele>3945.247</ele>
        <time>2021-09-05T19:46:08Z</time>
      </trkpt>
      <trkpt lat="19.142850" lon="-98.646321">
        <ele>3949.720</ele>
        <time>2021-09-05T19:47:29Z</time>
      </trkpt>
      <trkpt lat="19.142379" lon="-98.646351">
        <ele>3955.918</ele>
        <time>2021-09-05T19:48:56Z</time>
      </trkpt>
      <trkpt lat="19.142347" lon="-98.646152">
        <ele>3955.621</ele>
        <time>2021-09-05T19:49:25Z</time>
      </trkpt>
      <trkpt lat="19.141902" lon="-98.646252">
        <ele>3946.950</ele>
        <time>2021-09-05T19:53:14Z</time>
      </trkpt>
      <trkpt lat="19.141982" lon="-98.646195">
        <ele>3943.023</ele>
        <time>2021-09-05T19:53:45Z</time>
      </trkpt>
      <trkpt lat="19.140879" lon="-98.646010">
        <ele>3963.911</ele>
        <time>2021-09-05T19:56:09Z</time>
      </trkpt>
      <trkpt lat="19.139496" lon="-98.646584">
        <ele>3983.276</ele>
        <time>2021-09-05T19:59:10Z</time>
      </trkpt>
      <trkpt lat="19.138464" lon="-98.647586">
        <ele>4012.388</ele>
        <time>2021-09-05T20:04:52Z</time>
      </trkpt>
      <trkpt lat="19.138176" lon="-98.647594">
        <ele>4013.024</ele>
        <time>2021-09-05T20:05:40Z</time>
      </trkpt>
      <trkpt lat="19.138292" lon="-98.648017">
        <ele>4018.026</ele>
        <time>2021-09-05T20:07:21Z</time>
      </trkpt>
      <trkpt lat="19.137428" lon="-98.649032">
        <ele>4010.209</ele>
        <time>2021-09-05T20:09:37Z</time>
      </trkpt>
      <trkpt lat="19.137430" lon="-98.649417">
        <ele>4009.849</ele>
        <time>2021-09-05T20:10:06Z</time>
      </trkpt>
      <trkpt lat="19.137228" lon="-98.649865">
        <ele>4006.069</ele>
        <time>2021-09-05T20:10:45Z</time>
      </trkpt>
      <trkpt lat="19.136949" lon="-98.649912">
        <ele>3990.972</ele>
        <time>2021-09-05T20:11:12Z</time>
      </trkpt>
      <trkpt lat="19.136658" lon="-98.650362">
        <ele>3989.650</ele>
        <time>2021-09-05T20:13:44Z</time>
      </trkpt>
      <trkpt lat="19.136093" lon="-98.650353">
        <ele>3980.873</ele>
        <time>2021-09-05T20:16:55Z</time>
      </trkpt>
      <trkpt lat="19.135720" lon="-98.650564">
        <ele>3977.812</ele>
        <time>2021-09-05T20:17:33Z</time>
      </trkpt>
      <trkpt lat="19.135097" lon="-98.650443">
        <ele>3980.825</ele>
        <time>2021-09-05T20:18:27Z</time>
      </trkpt>
      <trkpt lat="19.134331" lon="-98.650530">
        <ele>3979.733</ele>
        <time>2021-09-05T20:19:33Z</time>
      </trkpt>
      <trkpt lat="19.133698" lon="-98.651372">
        <ele>3975.688</ele>
        <time>2021-09-05T20:21:01Z</time>
      </trkpt>
      <trkpt lat="19.133683" lon="-98.651825">
        <ele>3970.627</ele>
        <time>2021-09-05T20:21:49Z</time>
      </trkpt>
      <trkpt lat="19.133810" lon="-98.651807">
        <ele>3970.368</ele>
        <time>2021-09-05T20:21:58Z</time>
      </trkpt>
      <trkpt lat="19.133698" lon="-98.651785">
        <ele>3969.714</ele>
        <time>2021-09-05T20:22:29Z</time>
      </trkpt>
      <trkpt lat="19.133393" lon="-98.652166">
        <ele>3971.309</ele>
        <time>2021-09-05T20:23:25Z</time>
      </trkpt>
      <trkpt lat="19.131724" lon="-98.652203">
        <ele>3975.163</ele>
        <time>2021-09-05T20:26:07Z</time>
      </trkpt>
      <trkpt lat="19.130800" lon="-98.651681">
        <ele>3984.093</ele>
        <time>2021-09-05T20:28:22Z</time>
      </trkpt>
      <trkpt lat="19.129436" lon="-98.651195">
        <ele>3984.246</ele>
        <time>2021-09-05T20:30:27Z</time>
      </trkpt>
      <trkpt lat="19.128261" lon="-98.651422">
        <ele>3980.134</ele>
        <time>2021-09-05T20:32:11Z</time>
      </trkpt>
      <trkpt lat="19.127501" lon="-98.652380">
        <ele>3973.217</ele>
        <time>2021-09-05T20:37:31Z</time>
      </trkpt>
      <trkpt lat="19.127006" lon="-98.652358">
        <ele>3971.096</ele>
        <time>2021-09-05T20:38:19Z</time>
      </trkpt>
      <trkpt lat="19.126021" lon="-98.652820">
        <ele>3962.269</ele>
        <time>2021-09-05T20:39:42Z</time>
      </trkpt>
      <trkpt lat="19.125084" lon="-98.652509">
        <ele>3940.437</ele>
        <time>2021-09-05T20:41:08Z</time>
      </trkpt>
      <trkpt lat="19.124998" lon="-98.652373">
        <ele>3941.882</ele>
        <time>2021-09-05T20:41:28Z</time>
      </trkpt>
      <trkpt lat="19.124339" lon="-98.652394">
        <ele>3938.611</ele>
        <time>2021-09-05T20:42:15Z</time>
      </trkpt>
      <trkpt lat="19.122689" lon="-98.651912">
        <ele>3931.721</ele>
        <time>2021-09-05T20:44:48Z</time>
      </trkpt>
      <trkpt lat="19.122192" lon="-98.651850">
        <ele>3940.103</ele>
        <time>2021-09-05T20:45:46Z</time>
      </trkpt>
      <trkpt lat="19.121791" lon="-98.651970">
        <ele>3933.409</ele>
        <time>2021-09-05T20:46:24Z</time>
      </trkpt>
      <trkpt lat="19.121533" lon="-98.651563">
        <ele>3943.792</ele>
        <time>2021-09-05T20:47:02Z</time>
      </trkpt>
      <trkpt lat="19.120147" lon="-98.650431">
        <ele>3944.452</ele>
        <time>2021-09-05T20:49:46Z</time>
      </trkpt>
      <trkpt lat="19.119724" lon="-98.649484">
        <ele>3949.045</ele>
        <time>2021-09-05T20:51:01Z</time>
      </trkpt>
      <trkpt lat="19.118459" lon="-98.649453">
        <ele>3963.443</ele>
        <time>2021-09-05T20:52:56Z</time>
      </trkpt>
      <trkpt lat="19.117765" lon="-98.648889">
        <ele>3957.156</ele>
        <time>2021-09-05T20:54:12Z</time>
      </trkpt>
      <trkpt lat="19.116871" lon="-98.648656">
        <ele>3953.555</ele>
        <time>2021-09-05T20:55:28Z</time>
      </trkpt>
      <trkpt lat="19.116565" lon="-98.648452">
        <ele>3953.258</ele>
        <time>2021-09-05T20:55:57Z</time>
      </trkpt>
      <trkpt lat="19.115275" lon="-98.645930">
        <ele>3940.436</ele>
        <time>2021-09-05T20:59:36Z</time>
      </trkpt>
      <trkpt lat="19.115127" lon="-98.645732">
        <ele>3937.351</ele>
        <time>2021-09-05T20:59:55Z</time>
      </trkpt>
      <trkpt lat="19.114777" lon="-98.645654">
        <ele>3933.133</ele>
        <time>2021-09-05T21:00:24Z</time>
      </trkpt>
      <trkpt lat="19.114207" lon="-98.645899">
        <ele>3922.123</ele>
        <time>2021-09-05T21:03:08Z</time>
      </trkpt>
      <trkpt lat="19.111328" lon="-98.646127">
        <ele>3877.915</ele>
        <time>2021-09-05T21:07:18Z</time>
      </trkpt>
      <trkpt lat="19.110342" lon="-98.646338">
        <ele>3874.109</ele>
        <time>2021-09-05T21:08:33Z</time>
      </trkpt>
      <trkpt lat="19.110028" lon="-98.646594">
        <ele>3873.124</ele>
        <time>2021-09-05T21:09:02Z</time>
      </trkpt>
      <trkpt lat="19.109616" lon="-98.647396">
        <ele>3855.984</ele>
        <time>2021-09-05T21:10:18Z</time>
      </trkpt>
      <trkpt lat="19.109061" lon="-98.647859">
        <ele>3849.397</ele>
        <time>2021-09-05T21:11:16Z</time>
      </trkpt>
      <trkpt lat="19.108556" lon="-98.647734">
        <ele>3846.345</ele>
        <time>2021-09-05T21:12:04Z</time>
      </trkpt>
      <trkpt lat="19.108180" lon="-98.647249">
        <ele>3844.388</ele>
        <time>2021-09-05T21:12:54Z</time>
      </trkpt>
      <trkpt lat="19.108086" lon="-98.646804">
        <ele>3840.717</ele>
        <time>2021-09-05T21:13:32Z</time>
      </trkpt>
      <trkpt lat="19.106331" lon="-98.646457">
        <ele>3832.870</ele>
        <time>2021-09-05T21:16:05Z</time>
      </trkpt>
      <trkpt lat="19.105038" lon="-98.647012">
        <ele>3807.738</ele>
        <time>2021-09-05T21:20:47Z</time>
      </trkpt>
      <trkpt lat="19.104616" lon="-98.646929">
        <ele>3802.133</ele>
        <time>2021-09-05T21:21:16Z</time>
      </trkpt>
      <trkpt lat="19.104274" lon="-98.647042">
        <ele>3797.177</ele>
        <time>2021-09-05T21:21:45Z</time>
      </trkpt>
      <trkpt lat="19.102917" lon="-98.647715">
        <ele>3785.361</ele>
        <time>2021-09-05T21:23:33Z</time>
      </trkpt>
      <trkpt lat="19.102718" lon="-98.647576">
        <ele>3779.527</ele>
        <time>2021-09-05T21:25:22Z</time>
      </trkpt>
      <trkpt lat="19.101640" lon="-98.648030">
        <ele>3771.209</ele>
        <time>2021-09-05T21:26:48Z</time>
      </trkpt>
      <trkpt lat="19.100793" lon="-98.648144">
        <ele>3752.578</ele>
        <time>2021-09-05T21:27:54Z</time>
      </trkpt>
      <trkpt lat="19.099653" lon="-98.648038">
        <ele>3738.048</ele>
        <time>2021-09-05T21:29:29Z</time>
      </trkpt>
      <trkpt lat="19.099357" lon="-98.647475">
        <ele>3722.191</ele>
        <time>2021-09-05T21:30:17Z</time>
      </trkpt>
      <trkpt lat="19.098997" lon="-98.647152">
        <ele>3724.149</ele>
        <time>2021-09-05T21:30:56Z</time>
      </trkpt>
      <trkpt lat="19.097630" lon="-98.647842">
        <ele>3706.812</ele>
        <time>2021-09-05T21:32:53Z</time>
      </trkpt>
      <trkpt lat="19.097648" lon="-98.648065">
        <ele>3689.361</ele>
        <time>2021-09-05T21:33:12Z</time>
      </trkpt>
      <trkpt lat="19.096458" lon="-98.648257">
        <ele>3701.354</ele>
        <time>2021-09-05T21:34:38Z</time>
      </trkpt>
      <trkpt lat="19.095973" lon="-98.647939">
        <ele>3697.092</ele>
        <time>2021-09-05T21:35:27Z</time>
      </trkpt>
      <trkpt lat="19.095220" lon="-98.647779">
        <ele>3691.787</ele>
        <time>2021-09-05T21:36:25Z</time>
      </trkpt>
      <trkpt lat="19.094541" lon="-98.648120">
        <ele>3681.534</ele>
        <time>2021-09-05T21:38:54Z</time>
      </trkpt>
      <trkpt lat="19.094224" lon="-98.647744">
        <ele>3675.155</ele>
        <time>2021-09-05T21:39:33Z</time>
      </trkpt>
      <trkpt lat="19.092543" lon="-98.647832">
        <ele>3690.210</ele>
        <time>2021-09-05T21:41:55Z</time>
      </trkpt>
      <trkpt lat="19.090223" lon="-98.646549">
        <ele>3702.909</ele>
        <time>2021-09-05T21:45:16Z</time>
      </trkpt>
      <trkpt lat="19.088908" lon="-98.646275">
        <ele>3696.084</ele>
        <time>2021-09-05T21:47:07Z</time>
      </trkpt>
      <trkpt lat="19.087942" lon="-98.646173">
        <ele>3692.264</ele>
        <time>2021-09-05T21:48:25Z</time>
      </trkpt>
      <trkpt lat="19.087269" lon="-98.646629">
        <ele>3685.937</ele>
        <time>2021-09-05T21:49:32Z</time>
      </trkpt>
      <trkpt lat="19.086879" lon="-98.647088">
        <ele>3683.685</ele>
        <time>2021-09-05T21:52:30Z</time>
      </trkpt>
      <trkpt lat="19.086632" lon="-98.646851">
        <ele>3687.468</ele>
        <time>2021-09-05T21:53:20Z</time>
      </trkpt>
      <trkpt lat="19.086688" lon="-98.646582">
        <ele>3684.547</ele>
        <time>2021-09-05T21:59:07Z</time>
      </trkpt>
    </trkseg>
  </trk></gpx>